[
  {
    "id": 1,
    "original": "S/O Ram Singh, H No 15/1 Near City Mall, Indira Nagar, Lucknow, UP - 226016",
    "parsed": {
      "care_of": "Ram Singh",
      "house_number": "15/1",
      "landmark": "City Mall",
      "city": "Lucknow",
      "district": "Lucknow",
      "state": "Uttar Pradesh",
      "pincode": "226016"
    }
  },
  {
    "id": 2,
    "original": "W/O Sharma Ji, House Number 42, Sector 18, Noida, Uttar Pradesh 201301",
    "parsed": {
      "care_of": "Sharma Ji",
      "house_number": "42",
      "locality": "Sector 18",
      "city": "Noida",
      "district": "Gautam Buddha Nagar",
      "state": "Uttar Pradesh",
      "pincode": "201301"
    }
  },
  {
    "id": 3,
    "original": "C/O Rajesh Kumar, Plot No 123, Phase 2, Gurgaon, Haryana - 122001",
    "parsed": {
      "care_of": "Rajesh Kumar",
      "house_number": "123",
      "city": "Gurgaon",
      "district": "Gurgaon",
      "state": "Haryana",
      "pincode": "122001"
    }
  },
  {
    "id": 4,
    "original": "H.No. 456/A, Opposite Railway Station, Model Town, Ludhiana, Punjab 141002",
    "parsed": {
      "house_number": "456/a",
      "landmark": "Railway Station",
      "city": "Ludhiana",
      "district": "Ludhiana",
      "state": "Punjab",
      "pincode": "141002"
    }
  },
  {
    "id": 5,
    "original": "Flat 2B, Shanti Apartments, Near Metro Station, Rohini, Delhi - 110085",
    "parsed": {
      "landmark": "Metro Station",
      "city": "Rohini",
      "district": "New Delhi",
      "state": "Delhi",
      "pincode": "110085"
    }
  },
  {
    "id": 6,
    "original": "Village Rampur, Post Office Rampur, Tehsil Aligarh, District Aligarh, UP 202001",
    "parsed": {
      "city": "Aligarh",
      "village": "Rampur",
      "district": "Aligarh",
      "state": "Uttar Pradesh",
      "pincode": "202001"
    }
  },
  {
    "id": 7,
    "original": "Shop No 78, Gandhi Market, MG Road, Bangalore, Karnataka - 560001",
    "parsed": {
      "city": "Bangalore",
      "district": "Bangalore Urban",
      "state": "Karnataka",
      "pincode": "560001"
    }
  },
  {
    "id": 8,
    "original": "House 234, Banjara Hills, Road No 12, Hyderabad, Telangana 500034",
    "parsed": {
      "city": "Hyderabad",
      "district": "Hyderabad",
      "state": "Uttar Pradesh",
      "pincode": "500034"
    }
  },
  {
    "id": 9,
    "original": "Adarsh Colony, Ward No 5, Jaipur, Rajasthan - 302001",
    "parsed": {
      "city": "Jaipur",
      "district": "Jaipur",
      "state": "Rajasthan",
      "pincode": "302001"
    }
  },
  {
    "id": 10,
    "original": "Behind SBI Bank, Main Road, Patna, Bihar 800001",
    "parsed": {
      "city": "Patna",
      "district": "Patna",
      "state": "Bihar",
      "pincode": "800001"
    }
  },
  {
    "id": 11,
    "original": "Near Government Hospital, Chandigarh - 160001",
    "parsed": {
      "landmark": "Government Hospital",
      "city": "Chandigarh",
      "district": "Chandigarh",
      "state": "Chandigarh",
      "pincode": "160001"
    }
  },
  {
    "id": 12,
    "original": "S/o Mohan Lal, Vill Khetri, Po Khetri, Tehsil Khetri, Dist Jhunjhunu, Rajasthan 333504",
    "parsed": {
      "care_of": "Mohan Lal",
      "city": "Khetri",
      "village": "Khetri",
      "district": "Jhunjhunu",
      "state": "Rajasthan",
      "pincode": "333504"
    }
  },
  {
    "id": 13,
    "original": "H No 567, Sec 22, Chandigarh 160022",
    "parsed": {
      "house_number": "567",
      "locality": "Sector 22",
      "city": "Chandigarh",
      "district": "Chandigarh",
      "state": "Chandigarh",
      "pincode": "160022"
    }
  },
  {
    "id": 14,
    "original": "Flat No 3A, Tower B, DLF Phase 1, Gurgaon HR 122002",
    "parsed": {
      "city": "Gurgaon",
      "district": "Gurgaon",
      "state": "Haryana",
      "pincode": "122002"
    }
  },
  {
    "id": 15,
    "original": "C/O Suresh Babu, Door No 45/2, T Nagar, Chennai, Tamil Nadu 600017",
    "parsed": {
      "care_of": "Suresh Babu",
      "house_number": "45/2",
      "city": "Chennai",
      "district": "Chennai",
      "state": "Tamil Nadu",
      "pincode": "600017"
    }
  },
  {
    "id": 16,
    "original": "Village Sultanpur, Block Sultanpur, Dist Sultanpur, Uttar Pradesh 228001",
    "parsed": {
      "city": "Sultanpur",
      "village": "Sultanpur",
      "district": "Sultanpur",
      "state": "Uttar Pradesh",
      "pincode": "228001"
    }
  },
  {
    "id": 17,
    "original": "House 89, Street 12, Sector 35, Chandigarh - 160035",
    "parsed": {
      "locality": "Sector 35",
      "city": "Chandigarh",
      "district": "Chandigarh",
      "state": "Chandigarh",
      "pincode": "160035"
    }
  },
  {
    "id": 18,
    "original": "Near Post Office, Bhopal, Madhya Pradesh 462001",
    "parsed": {
      "landmark": "Post Office",
      "city": "Bhopal",
      "district": "Bhopal",
      "state": "Madhya Pradesh",
      "pincode": "462001"
    }
  },
  {
    "id": 19,
    "original": "Opp City Hospital, Ahmedabad, Gujarat - 380001",
    "parsed": {
      "landmark": "City Hospital",
      "city": "Ahmedabad",
      "district": "Ahmedabad",
      "state": "Gujarat",
      "pincode": "380001"
    }
  },
  {
    "id": 20,
    "original": "S/O Ravi Kumar, H.No. 123, Phase 3, Mohali, Punjab 160062",
    "parsed": {
      "care_of": "Ravi Kumar",
      "house_number": "123",
      "city": "Mohali",
      "district": "Mohali",
      "state": "Punjab",
      "pincode": "160062"
    }
  }
]